OBJECT_NAME,OBJECT_ID,EPOCH,MEAN_MOTION,ECCENTRICITY,INCLINATION,RA_OF_ASC_NODE,ARG_OF_PERICENTER,MEAN_ANOMALY,EPHEMERIS_TYPE,CLASSIFICATION_TYPE,NORAD_CAT_ID,ELEMENT_SET_NO,REV_AT_EPOCH,BSTAR,MEAN_MOTION_DOT,MEAN_MOTION_DDOT
CUBEBUG-2 (LO-74),2013-066AA,2026-06-05T19:25:13.635840,14.93668030,.0059435,97.8908,105.7402,65.9901,294.7524,0,U,39440,999,67529,.51354E-3,.556E-4,0
FUNCUBE-1 (AO-73),2013-066AE,2026-06-05T17:17:36.504096,15.09347901,.0034657,97.8279,127.9286,241.2535,118.5210,0,U,39444,999,67793,.47823E-3,.7673E-4,0
UWE-3,2013-066AG,2026-06-05T09:13:47.311968,14.96928204,.0049229,97.8699,112.3806,1.0820,359.0498,0,U,39446,999,67581,.3727E-3,.4324E-4,0
UNISAT-6,2014-033C,2026-06-05T16:52:35.679072,14.88181134,.0046454,97.7873,309.6189,106.0536,254.5803,0,U,40012,999,64445,.43462E-3,.4032E-4,0
DUCHIFAT-1,2014-033M,2026-06-05T10:29:13.596288,15.62240333,.0004709,98.0469,213.9697,135.9979,224.1653,0,U,40021,999,65391,.10321E-2,.91631E-3,0
QB50P1,2014-033R,2026-06-05T06:52:12.859680,15.18070423,.0007025,98.0971,166.5996,264.5036,95.5395,0,U,40025,999,65122,.39735E-3,.8026E-4,0
LILACSAT-2,2015-049K,2026-06-05T09:40:28.706592,15.51038852,.0005343,97.4655,192.7995,302.5632,57.5104,0,U,40908,999,59392,.29144E-3,.16866E-3,0
FOX-1A (AO-85),2015-058D,2026-06-05T19:34:20.421696,14.90911959,.0129861,64.7765,314.3220,61.0355,300.3704,0,U,40967,999,11187,.33712E-3,.3743E-4,0
CAS-2T & KS-1Q,2016-066G,2026-06-05T11:11:03.727968,14.44654069,.0342355,98.3816,232.3358,164.9515,196.2178,0,U,41847,999,50310,.25737E-3,.1782E-4,0
RADFXSAT (FOX-1B),2017-073E,2026-06-05T08:48:23.724000,15.12507922,.0151376,97.4713,23.8246,10.1794,350.2442,0,U,43017,999,46360,.4044E-3,.9261E-4,0
DIWATA-2B,2018-084H,2026-06-05T19:59:09.668256,15.00397499,.0011826,98.1156,352.5494,208.0097,152.0491,0,U,43678,999,41451,.24619E-3,.3032E-4,0
ES'HAIL 2,2018-090A,2026-06-05T15:20:59.362080,1.00273110,.0001956,0.0169,6.1871,102.4053,41.5169,0,U,43700,999,2756,0,.157E-5,0
FOX-1CLIFF (AO-95),2018-099N,2026-06-05T01:58:43.175424,15.26442922,.0009283,97.4389,216.3757,40.1659,320.0264,0,U,43770,999,41137,.4228E-3,.10962E-3,0
ITASAT,2018-099AE,2026-06-05T08:40:51.938400,15.18900130,.0013338,97.4030,208.1104,40.5492,319.6733,0,U,43786,999,41111,.3577E-3,.7415E-4,0
JY1SAT (JO-97),2018-099AX,2026-06-05T02:08:09.513600,15.33253592,.0004294,97.4134,218.8851,322.9431,37.1514,0,U,43803,999,41177,.49499E-3,.15845E-3,0
UWE-4,2018-111E,2026-06-05T01:04:33.820032,15.45332944,.00078982,97.5859,83.8833,27.7618,332.4050,0,U,43880,999,40890,.73225046E-3,.34971E-3,0
TIANYAN 01,2019-093C,2026-06-05T20:53:55.963104,14.86497672,.001473,97.7530,229.3781,120.5462,239.7209,0,U,44881,999,34973,.43349E-4,.331E-5,0
RS-44 & BREEZE-KM R/B,2019-096E,2026-06-05T12:17:59.548128,12.79748592,.0217652,82.5218,347.4646,171.4058,189.0869,0,U,44909,999,30085,-.45461E-5,.11E-6,0
SALSAT,2020-068K,2026-06-05T12:02:50.088768,15.29623212,.000921,97.8853,158.8572,354.5258,5.5879,0,U,46495,999,31357,.29742E-3,.8465E-4,0
XW-3 (CAS-9),2021-131B,2026-06-05T21:04:26.266656,14.41346043,.0005092,98.4977,249.3291,122.4760,237.6922,0,U,50466,999,23348,.10563E-3,.298E-5,0
GREENCUBE (IO-117),2022-080E,2026-06-01T11:09:37.753056,6.42583280,.00088692,70.1435,303.7143,293.3663,66.6064,0,U,53109,999,9105,0,-.3E-7,0
UMKA 1 (RS40S),2023-091G,2026-06-05T17:03:24.048000,15.20682241,.0013615,97.5051,215.4529,153.9596,206.2326,0,U,57172,999,16226,.3536E-3,.7719E-4,0
CUBESX-HSE 3 (RS42S),2023-091N,2026-06-05T14:32:25.491840,15.30909781,.0012038,97.5091,222.0491,130.4685,229.7608,0,U,57178,999,16265,.49411E-3,.14723E-3,0
MONITOR-3 (RS58S),2023-091Q,2026-06-05T19:14:11.664960,15.27605404,.0012905,97.5082,220.1658,136.1740,224.0525,0,U,57180,999,16255,.53601E-3,.14439E-3,0
MONITOR-4 (RS57S),2023-091S,2026-06-05T18:45:00.026784,15.27699899,.0012901,97.5077,220.1159,136.5549,223.6709,0,U,57182,999,16255,.43804E-3,.11816E-3,0
MONITOR-2 (RS39S),2023-091U,2026-06-05T18:48:17.012736,15.18800262,.0012196,97.5073,215.1407,146.3854,213.8157,0,U,57184,999,16222,.29135E-3,.6005E-4,0
SVYATOBOR 1 (RS60S),2023-091X,2026-06-05T18:49:53.526720,15.26414953,.0010803,97.5089,220.5400,128.7909,231.4296,0,U,57187,999,16257,.41482E-3,.10748E-3,0
VIZARD-METEO (RS38S),2023-091Z,2026-06-05T19:27:53.476704,15.35653924,.0008746,97.5090,226.0713,111.2948,248.9230,0,U,57189,999,16294,.63883E-3,.22128E-3,0
POLYTECH-UNIVERSE 3 (RS46S),2023-091AB,2026-06-05T19:29:36.937248,15.19002544,.0016078,97.5048,214.6739,163.5854,196.5904,0,U,57191,999,16222,.29409E-3,.6106E-4,0
UTMN 2 (RS27S),2023-091AP,2026-06-05T19:49:07.002336,15.31765138,.0009466,97.5087,223.8918,117.5137,242.7067,0,U,57203,999,16280,.54884E-3,.16795E-3,0
